{"type": "FeatureCollection", "features": [ {"type": "Feature", "properties": {"norad_id": 29919, "name": "FENGYUN 1C DEB", "group": "fengyun-1c-debris", "lat": 39.7402805644774, "lon": -39.927536760800734, "alt_km": 1008.0148499823881, "timestamp": "2025-12-03T15:48:03.344015+00:00", "meta": {"OBJECT_NAME": "FENGYUN 1C DEB", "OBJECT_ID": "1999-025HR", "EPOCH": "2025-12-03T08:31:09.865920", "MEAN_MOTION": 13.85117297, "ECCENTRICITY": 0.01378174, "INCLINATION": 98.4788, "RA_OF_ASC_NODE": 132.6741, "ARG_OF_PERICENTER": 9.5337, "MEAN_ANOMALY": 56.88, "EPHEMERIS_TYPE": 0, "CLASSIFICATION_TYPE": "U", "NORAD_CAT_ID": 29919, "ELEMENT_SET_NO": 999, "REV_AT_EPOCH": 95405, "BSTAR": 0.00022732616, "MEAN_MOTION_DOT": 2.39e-06, "MEAN_MOTION_DDOT": 0}, "tle": {"line1": "1 29919U 99025HR  25337.35497530  .00000239  00000+0  22733-3 0  9994", "line2": "2 29919  98.4788 132.6741 0137817   9.5337  56.8800 13.85117297954058"}}, "geometry": {"type": "Point", "coordinates": [-39.927536760800734, 39.7402805644774]}}, {"type": "Feature", "properties": {"norad_id": 29920, "name": "FENGYUN 1C DEB", "group": "fengyun-1c-debris", "lat": 49.19685042705535, "lon": 22.690018518204624, "alt_km": 967.9779363598418, "timestamp": "2025-12-03T15:48:03.344024+00:00", "meta": {"OBJECT_NAME": "FENGYUN 1C DEB", "OBJECT_ID": "1999-025HS", "EPOCH": "2025-12-03T01:29:27.899808", "MEAN_MOTION": 14.03594732, "ECCENTRICITY": 0.01256982, "INCLINATION": 98.3916, "RA_OF_ASC_NODE": 192.2942, "ARG_OF_PERICENTER": 308.4091, "MEAN_ANOMALY": 50.5844, "EPHEMERIS_TYPE": 0, "CLASSIFICATION_TYPE": "U", "NORAD_CAT_ID": 29920, "ELEMENT_SET_NO": 999, "REV_AT_EPOCH": 96152, "BSTAR": 0.0016177956, "MEAN_MOTION_DOT": 2.683e-05, "MEAN_MOTION_DDOT": 0}, "tle": {"line1": "1 29920U 99025HS  25337.06212847  .00002683  00000+0  16178-2 0  9990", "line2": "2 29920  98.3916 192.2942 0125698 308.4091  50.5844 14.03594732961522"}}, "geometry": {"type": "Point", "coordinates": [22.690018518204624, 49.19685042705535]}}, {"type": "Feature", "properties": {"norad_id": 29921, "name": "FENGYUN 1C DEB", "group": "fengyun-1c-debris", "lat": -46.70819793417104, "lon": 154.58763157032982, "alt_km": 900.4407096100249, "timestamp": "2025-12-03T15:48:03.344032+00:00", "meta": {"OBJECT_NAME": "FENGYUN 1C DEB", "OBJECT_ID": "1999-025HT", "EPOCH": "2025-12-03T06:29:40.182144", "MEAN_MOTION": 14.06623078, "ECCENTRICITY": 0.00464824, "INCLINATION": 98.7869, "RA_OF_ASC_NODE": 343.6607, "ARG_OF_PERICENTER": 95.7695, "MEAN_ANOMALY": 328.6824, "EPHEMERIS_TYPE": 0, "CLASSIFICATION_TYPE": "U", "NORAD_CAT_ID": 29921, "ELEMENT_SET_NO": 999, "REV_AT_EPOCH": 96743, "BSTAR": 0.00047522337, "MEAN_MOTION_DOT": 7.53e-06, "MEAN_MOTION_DDOT": 0}, "tle": {"line1": "1 29921U 99025HT  25337.27060396  .00000753  00000+0  47522-3 0  9998", "line2": "2 29921  98.7869 343.6607 0046482  95.7695 328.6824 14.06623078967435"}}, "geometry": {"type": "Point", "coordinates": [154.58763157032982, -46.70819793417104]}}, {"type": "Feature", "properties": {"norad_id": 29922, "name": "FENGYUN 1C DEB", "group": "fengyun-1c-debris", "lat": -79.28786052936127, "lon": 93.4360483804013, "alt_km": 935.9661095231568, "timestamp": "2025-12-03T15:48:03.344041+00:00", "meta": {"OBJECT_NAME": "FENGYUN 1C DEB", "OBJECT_ID": "1999-025HU", "EPOCH": "2025-12-03T02:27:58.939200", "MEAN_MOTION": 13.98572764, "ECCENTRICITY": 0.00938608, "INCLINATION": 99.1371, "RA_OF_ASC_NODE": 34.5886, "ARG_OF_PERICENTER": 33.5983, "MEAN_ANOMALY": 327.1085, "EPHEMERIS_TYPE": 0, "CLASSIFICATION_TYPE": "U", "NORAD_CAT_ID": 29922, "ELEMENT_SET_NO": 999, "REV_AT_EPOCH": 96306, "BSTAR": 0.00035298903, "MEAN_MOTION_DOT": 4.81e-06, "MEAN_MOTION_DDOT": 0}, "tle": {"line1": "1 29922U 99025HU  25337.10276550  .00000481  00000+0  35299-3 0  9998", "line2": "2 29922  99.1371  34.5886 0093860  33.5983 327.1085 13.98572764963069"}}, "geometry": {"type": "Point", "coordinates": [93.4360483804013, -79.28786052936127]}}, {"type": "Feature", "properties": {"norad_id": 29923, "name": "FENGYUN 1C DEB", "group": "fengyun-1c-debris", "lat": -21.17548181024034, "lon": -10.398119671351647, "alt_km": 861.3827380867388, "timestamp": "2025-12-03T15:48:03.344050+00:00", "meta": {"OBJECT_NAME": "FENGYUN 1C DEB", "OBJECT_ID": "1999-025HV", "EPOCH": "2025-12-02T20:06:30.153600", "MEAN_MOTION": 14.13864504, "ECCENTRICITY": 0.00172155, "INCLINATION": 98.6886, "RA_OF_ASC_NODE": 345.4085, "ARG_OF_PERICENTER": 197.4627, "MEAN_ANOMALY": 287.0477, "EPHEMERIS_TYPE": 0, "CLASSIFICATION_TYPE": "U", "NORAD_CAT_ID": 29923, "ELEMENT_SET_NO": 999, "REV_AT_EPOCH": 97135, "BSTAR": 0.00058676497, "MEAN_MOTION_DOT": 1.071e-05, "MEAN_MOTION_DDOT": 0}, "tle": {"line1": "1 29923U 99025HV  25336.83784900  .00001071  00000+0  58676-3 0  9991", "line2": "2 29923  98.6886 345.4085 0017215 197.4627 287.0477 14.13864504971359"}}, "geometry": {"type": "Point", "coordinates": [-10.398119671351647, -21.17548181024034]}}, {"type": "Feature", "properties": {"norad_id": 29924, "name": "FENGYUN 1C DEB", "group": "fengyun-1c-debris", "lat": 62.91779987924788, "lon": -171.60503405266493, "alt_km": 875.4107524523006, "timestamp": "2025-12-03T15:48:03.344059+00:00", "meta": {"OBJECT_NAME": "FENGYUN 1C DEB", "OBJECT_ID": "1999-025HW", "EPOCH": "2025-12-03T06:47:20.099328", "MEAN_MOTION": 14.08885509, "ECCENTRICITY": 0.00258995, "INCLINATION": 98.7348, "RA_OF_ASC_NODE": 350.5336, "ARG_OF_PERICENTER": 285.4493, "MEAN_ANOMALY": 86.8245, "EPHEMERIS_TYPE": 0, "CLASSIFICATION_TYPE": "U", "NORAD_CAT_ID": 29924, "ELEMENT_SET_NO": 999, "REV_AT_EPOCH": 97075, "BSTAR": 8.650364e-05, "MEAN_MOTION_DOT": 1.07e-06, "MEAN_MOTION_DDOT": 0}, "tle": {"line1": "1 29924U 99025HW  25337.28287152  .00000107  00000+0  86504-4 0  9990", "line2": "2 29924  98.7348 350.5336 0025899 285.4493  86.8245 14.08885509970759"}}, "geometry": {"type": "Point", "coordinates": [-171.60503405266493, 62.91779987924788]}}, {"type": "Feature", "properties": {"norad_id": 29926, "name": "FENGYUN 1C DEB", "group": "fengyun-1c-debris", "lat": -78.63856444080143, "lon": 100.47554383953782, "alt_km": 709.7040127573546, "timestamp": "2025-12-03T15:48:03.344068+00:00", "meta": {"OBJECT_NAME": "FENGYUN 1C DEB", "OBJECT_ID": "1999-025HY", "EPOCH": "2025-12-03T06:14:24.705024", "MEAN_MOTION": 14.33341838, "ECCENTRICITY": 0.02488447, "INCLINATION": 98.2825, "RA_OF_ASC_NODE": 326.558, "ARG_OF_PERICENTER": 328.6243, "MEAN_ANOMALY": 41.746, "EPHEMERIS_TYPE": 0, "CLASSIFICATION_TYPE": "U", "NORAD_CAT_ID": 29926, "ELEMENT_SET_NO": 999, "REV_AT_EPOCH": 98445, "BSTAR": 0.00065870487, "MEAN_MOTION_DOT": 2.514e-05, "MEAN_MOTION_DDOT": 0}, "tle": {"line1": "1 29926U 99025HY  25337.26000816  .00002514  00000+0  65870-3 0  9996", "line2": "2 29926  98.2825 326.5580 0248844 328.6243  41.7460 14.33341838984451"}}, "geometry": {"type": "Point", "coordinates": [100.47554383953782, -78.63856444080143]}}, {"type": "Feature", "properties": {"norad_id": 29927, "name": "FENGYUN 1C DEB", "group": "fengyun-1c-debris", "lat": 42.91006241528547, "lon": -170.92574862714076, "alt_km": 647.56863584449, "timestamp": "2025-12-03T15:48:03.344078+00:00", "meta": {"OBJECT_NAME": "FENGYUN 1C DEB", "OBJECT_ID": "1999-025HZ", "EPOCH": "2025-12-03T00:45:49.733568", "MEAN_MOTION": 14.73948933, "ECCENTRICITY": 0.00175339, "INCLINATION": 99.0856, "RA_OF_ASC_NODE": 359.8181, "ARG_OF_PERICENTER": 241.2734, "MEAN_ANOMALY": 172.5679, "EPHEMERIS_TYPE": 0, "CLASSIFICATION_TYPE": "U", "NORAD_CAT_ID": 29927, "ELEMENT_SET_NO": 999, "REV_AT_EPOCH": 98504, "BSTAR": 0.0040748379, "MEAN_MOTION_DOT": 0.00026856, "MEAN_MOTION_DDOT": 0}, "tle": {"line1": "1 29927U 99025HZ  25337.03182562  .00026856  00000+0  40748-2 0  9992", "line2": "2 29927  99.0856 359.8181 0017533 241.2734 172.5679 14.73948933985049"}}, "geometry": {"type": "Point", "coordinates": [-170.92574862714076, 42.91006241528547]}}, {"type": "Feature", "properties": {"norad_id": 29928, "name": "FENGYUN 1C DEB", "group": "fengyun-1c-debris", "lat": -3.435825484382705, "lon": -178.89825273780338, "alt_km": 879.2889866934675, "timestamp": "2025-12-03T15:48:03.344087+00:00", "meta": {"OBJECT_NAME": "FENGYUN 1C DEB", "OBJECT_ID": "1999-025JA", "EPOCH": "2025-12-03T08:06:23.486112", "MEAN_MOTION": 13.8806152, "ECCENTRICITY": 0.01435499, "INCLINATION": 99.5855, "RA_OF_ASC_NODE": 1.3539, "ARG_OF_PERICENTER": 128.0024, "MEAN_ANOMALY": 252.8124, "EPHEMERIS_TYPE": 0, "CLASSIFICATION_TYPE": "U", "NORAD_CAT_ID": 29928, "ELEMENT_SET_NO": 999, "REV_AT_EPOCH": 95361, "BSTAR": 0.00083344307, "MEAN_MOTION_DOT": 1.032e-05, "MEAN_MOTION_DDOT": 0}, "tle": {"line1": "1 29928U 99025JA  25337.33777183  .00001032  00000+0  83344-3 0  9994", "line2": "2 29928  99.5855   1.3539 0143549 128.0024 252.8124 13.88061520953619"}}, "geometry": {"type": "Point", "coordinates": [-178.89825273780338, -3.435825484382705]}}, {"type": "Feature", "properties": {"norad_id": 29929, "name": "FENGYUN 1C DEB", "group": "fengyun-1c-debris", "lat": -25.762038168800576, "lon": -98.40237095078359, "alt_km": 957.9012402394419, "timestamp": "2025-12-03T15:48:03.344096+00:00", "meta": {"OBJECT_NAME": "FENGYUN 1C DEB", "OBJECT_ID": "1999-025JB", "EPOCH": "2025-12-03T06:23:08.601792", "MEAN_MOTION": 14.01313821, "ECCENTRICITY": 0.01307915, "INCLINATION": 98.624, "RA_OF_ASC_NODE": 257.0268, "ARG_OF_PERICENTER": 202.996, "MEAN_ANOMALY": 311.9637, "EPHEMERIS_TYPE": 0, "CLASSIFICATION_TYPE": "U", "NORAD_CAT_ID": 29929, "ELEMENT_SET_NO": 999, "REV_AT_EPOCH": 95823, "BSTAR": 0.0013796167, "MEAN_MOTION_DOT": 2.198e-05, "MEAN_MOTION_DDOT": 0}, "tle": {"line1": "1 29929U 99025JB  25337.26607178  .00002198  00000+0  13796-2 0  9990", "line2": "2 29929  98.6240 257.0268 0130791 202.9960 311.9637 14.01313821958232"}}, "geometry": {"type": "Point", "coordinates": [-98.40237095078359, -25.762038168800576]}}]}